[{"OBJECT_NAME":"DMSP 5D-3 F16 (USA 172)","OBJECT_ID":"2003-048A","EPOCH":"2026-03-06T14:31:20.297856","MEAN_MOTION":14.14460733,"ECCENTRICITY":0.00081702,"INCLINATION":98.9996,"RA_OF_ASC_NODE":88.709,"ARG_OF_PERICENTER":80.3859,"MEAN_ANOMALY":26.5999,"EPHEMERIS_TYPE":0,"CLASSIFICATION_TYPE":"U","NORAD_CAT_ID":28054,"ELEMENT_SET_NO":999,"REV_AT_EPOCH":15498,"BSTAR":0.00011745685,"MEAN_MOTION_DOT":1.8e-6,"MEAN_MOTION_DDOT":0},{"OBJECT_NAME":"METEOSAT-9 (MSG-2)","OBJECT_ID":"2005-049B","EPOCH":"2026-03-06T14:10:33.237408","MEAN_MOTION":1.00278557,"ECCENTRICITY":0.00015998,"INCLINATION":9.1298,"RA_OF_ASC_NODE":55.1603,"ARG_OF_PERICENTER":224.1198,"MEAN_ANOMALY":143.4443,"EPHEMERIS_TYPE":0,"CLASSIFICATION_TYPE":"U","NORAD_CAT_ID":28912,"ELEMENT_SET_NO":999,"REV_AT_EPOCH":597,"BSTAR":0,"MEAN_MOTION_DOT":1.22e-6,"MEAN_MOTION_DDOT":0},{"OBJECT_NAME":"DMSP 5D-3 F17 (USA 191)","OBJECT_ID":"2006-050A","EPOCH":"2026-03-06T13:35:58.404480","MEAN_MOTION":14.14962302,"ECCENTRICITY":0.00099564,"INCLINATION":98.7414,"RA_OF_ASC_NODE":74.2253,"ARG_OF_PERICENTER":355.925,"MEAN_ANOMALY":4.1841,"EPHEMERIS_TYPE":0,"CLASSIFICATION_TYPE":"U","NORAD_CAT_ID":29522,"ELEMENT_SET_NO":999,"REV_AT_EPOCH":99790,"BSTAR":0.00014375986,"MEAN_MOTION_DOT":2.35e-6,"MEAN_MOTION_DDOT":0},{"OBJECT_NAME":"FENGYUN 3A","OBJECT_ID":"2008-026A","EPOCH":"2026-03-06T13:31:19.064640","MEAN_MOTION":14.19545242,"ECCENTRICITY":0.00097533,"INCLINATION":98.6795,"RA_OF_ASC_NODE":8.3685,"ARG_OF_PERICENTER":66.3473,"MEAN_ANOMALY":293.8727,"EPHEMERIS_TYPE":0,"CLASSIFICATION_TYPE":"U","NORAD_CAT_ID":32958,"ELEMENT_SET_NO":999,"REV_AT_EPOCH":92084,"BSTAR":9.6360478e-5,"MEAN_MOTION_DOT":1.6e-6,"MEAN_MOTION_DDOT":0},{"OBJECT_NAME":"GOES 14","OBJECT_ID":"2009-033A","EPOCH":"2026-03-06T12:55:38.786304","MEAN_MOTION":1.00100334,"ECCENTRICITY":0.00017727,"INCLINATION":1.4247,"RA_OF_ASC_NODE":84.3912,"ARG_OF_PERICENTER":256.7839,"MEAN_ANOMALY":217.5308,"EPHEMERIS_TYPE":0,"CLASSIFICATION_TYPE":"U","NORAD_CAT_ID":35491,"ELEMENT_SET_NO":999,"REV_AT_EPOCH":556,"BSTAR":0,"MEAN_MOTION_DOT":1.2e-6,"MEAN_MOTION_DDOT":0},{"OBJECT_NAME":"DMSP 5D-3 F18 (USA 210)","OBJECT_ID":"2009-057A","EPOCH":"2026-03-06T14:25:03.240480","MEAN_MOTION":14.14833692,"ECCENTRICITY":0.00109525,"INCLINATION":98.896,"RA_OF_ASC_NODE":46.6406,"ARG_OF_PERICENTER":177.0458,"MEAN_ANOMALY":183.0782,"EPHEMERIS_TYPE":0,"CLASSIFICATION_TYPE":"U","NORAD_CAT_ID":35951,"ELEMENT_SET_NO":999,"REV_AT_EPOCH":84508,"BSTAR":0.00020302067,"MEAN_MOTION_DOT":3.47e-6,"MEAN_MOTION_DDOT":0},{"OBJECT_NAME":"EWS-G2 (GOES 15)","OBJECT_ID":"2010-008A","EPOCH":"2026-03-06T14:15:32.757696","MEAN_MOTION":1.0026981,"ECCENTRICITY":0.00021039,"INCLINATION":1.0141,"RA_OF_ASC_NODE":85.1037,"ARG_OF_PERICENTER":17.4735,"MEAN_ANOMALY":339.0829,"EPHEMERIS_TYPE":0,"CLASSIFICATION_TYPE":"U","NORAD_CAT_ID":36411,"ELEMENT_SET_NO":999,"REV_AT_EPOCH":5860,"BSTAR":0,"MEAN_MOTION_DOT":1.7e-7,"MEAN_MOTION_DDOT":0},{"OBJECT_NAME":"COMS 1","OBJECT_ID":"2010-032A","EPOCH":"2026-03-06T09:17:38.863104","MEAN_MOTION":1.00271769,"ECCENTRICITY":0.00012474,"INCLINATION":4.5407,"RA_OF_ASC_NODE":76.8433,"ARG_OF_PERICENTER":292.8421,"MEAN_ANOMALY":62.0076,"EPHEMERIS_TYPE":0,"CLASSIFICATION_TYPE":"U","NORAD_CAT_ID":36744,"ELEMENT_SET_NO":999,"REV_AT_EPOCH":5005,"BSTAR":0,"MEAN_MOTION_DOT":-3.47e-6,"MEAN_MOTION_DDOT":0},{"OBJECT_NAME":"FENGYUN 3B","OBJECT_ID":"2010-059A","EPOCH":"2026-03-06T15:17:53.016288","MEAN_MOTION":14.14818222,"ECCENTRICITY":0.00230157,"INCLINATION":98.9767,"RA_OF_ASC_NODE":111.154,"ARG_OF_PERICENTER":116.4079,"MEAN_ANOMALY":36.234,"EPHEMERIS_TYPE":0,"CLASSIFICATION_TYPE":"U","NORAD_CAT_ID":37214,"ELEMENT_SET_NO":999,"REV_AT_EPOCH":79292,"BSTAR":0.00030991339,"MEAN_MOTION_DOT":5.54e-6,"MEAN_MOTION_DDOT":0},{"OBJECT_NAME":"SUOMI NPP","OBJECT_ID":"2011-061A","EPOCH":"2026-03-06T13:42:50.659488","MEAN_MOTION":14.19542526,"ECCENTRICITY":4.0e-5,"INCLINATION":98.7867,"RA_OF_ASC_NODE":7.1989,"ARG_OF_PERICENTER":259.5354,"MEAN_ANOMALY":100.5777,"EPHEMERIS_TYPE":0,"CLASSIFICATION_TYPE":"U","NORAD_CAT_ID":37849,"ELEMENT_SET_NO":999,"REV_AT_EPOCH":74388,"BSTAR":8.9496156e-5,"MEAN_MOTION_DOT":1.44e-6,"MEAN_MOTION_DDOT":0},{"OBJECT_NAME":"METEOSAT-10 (MSG-3)","OBJECT_ID":"2012-035B","EPOCH":"2026-03-06T13:57:34.482240","MEAN_MOTION":1.0026788,"ECCENTRICITY":0.00024893,"INCLINATION":4.4288,"RA_OF_ASC_NODE":61.4541,"ARG_OF_PERICENTER":282.7303,"MEAN_ANOMALY":29.7526,"EPHEMERIS_TYPE":0,"CLASSIFICATION_TYPE":"U","NORAD_CAT_ID":38552,"ELEMENT_SET_NO":999,"REV_AT_EPOCH":4982,"BSTAR":0,"MEAN_MOTION_DOT":-9.0e-8,"MEAN_MOTION_DDOT":0},{"OBJECT_NAME":"METOP-B","OBJECT_ID":"2012-049A","EPOCH":"2026-03-06T15:06:19.293408","MEAN_MOTION":14.2144362,"ECCENTRICITY":0.00011835,"INCLINATION":98.6648,"RA_OF_ASC_NODE":119.1119,"ARG_OF_PERICENTER":282.7518,"MEAN_ANOMALY":77.3528,"EPHEMERIS_TYPE":0,"CLASSIFICATION_TYPE":"U","NORAD_CAT_ID":38771,"ELEMENT_SET_NO":999,"REV_AT_EPOCH":69869,"BSTAR":9.5315079e-5,"MEAN_MOTION_DOT":1.65e-6,"MEAN_MOTION_DDOT":0},{"OBJECT_NAME":"INSAT-3D","OBJECT_ID":"2013-038B","EPOCH":"2026-03-06T14:34:23.450304","MEAN_MOTION":1.00272573,"ECCENTRICITY":0.00016895,"INCLINATION":1.661,"RA_OF_ASC_NODE":83.8839,"ARG_OF_PERICENTER":247.8508,"MEAN_ANOMALY":180.6788,"EPHEMERIS_TYPE":0,"CLASSIFICATION_TYPE":"U","NORAD_CAT_ID":39216,"ELEMENT_SET_NO":999,"REV_AT_EPOCH":4605,"BSTAR":0,"MEAN_MOTION_DOT":-3.42e-6,"MEAN_MOTION_DDOT":0},{"OBJECT_NAME":"FENGYUN 3C","OBJECT_ID":"2013-052A","EPOCH":"2026-03-06T15:17:01.135680","MEAN_MOTION":14.15727817,"ECCENTRICITY":0.00139834,"INCLINATION":98.4887,"RA_OF_ASC_NODE":44.2749,"ARG_OF_PERICENTER":322.4831,"MEAN_ANOMALY":37.5366,"EPHEMERIS_TYPE":0,"CLASSIFICATION_TYPE":"U","NORAD_CAT_ID":39260,"ELEMENT_SET_NO":999,"REV_AT_EPOCH":64405,"BSTAR":0.0001072766,"MEAN_MOTION_DOT":1.69e-6,"MEAN_MOTION_DDOT":0},{"OBJECT_NAME":"METEOR-M 2","OBJECT_ID":"2014-037A","EPOCH":"2026-03-06T15:45:24.072768","MEAN_MOTION":14.21426083,"ECCENTRICITY":0.00055581,"INCLINATION":98.5023,"RA_OF_ASC_NODE":45.0797,"ARG_OF_PERICENTER":347.1252,"MEAN_ANOMALY":12.9783,"EPHEMERIS_TYPE":0,"CLASSIFICATION_TYPE":"U","NORAD_CAT_ID":40069,"ELEMENT_SET_NO":999,"REV_AT_EPOCH":60475,"BSTAR":-1.9992513e-5,"MEAN_MOTION_DOT":-8.6e-7,"MEAN_MOTION_DDOT":0},{"OBJECT_NAME":"HIMAWARI-8","OBJECT_ID":"2014-060A","EPOCH":"2026-03-05T23:13:24.936672","MEAN_MOTION":1.00271621,"ECCENTRICITY":7.206e-5,"INCLINATION":0.0252,"RA_OF_ASC_NODE":238.2083,"ARG_OF_PERICENTER":99.4681,"MEAN_ANOMALY":315.0191,"EPHEMERIS_TYPE":0,"CLASSIFICATION_TYPE":"U","NORAD_CAT_ID":40267,"ELEMENT_SET_NO":999,"REV_AT_EPOCH":4172,"BSTAR":0,"MEAN_MOTION_DOT":-2.82e-6,"MEAN_MOTION_DDOT":0},{"OBJECT_NAME":"FENGYUN 2G","OBJECT_ID":"2014-090A","EPOCH":"2026-03-06T12:43:12.279072","MEAN_MOTION":1.00273916,"ECCENTRICITY":0.00016863,"INCLINATION":5.3795,"RA_OF_ASC_NODE":74.0622,"ARG_OF_PERICENTER":150.5335,"MEAN_ANOMALY":230.1497,"EPHEMERIS_TYPE":0,"CLASSIFICATION_TYPE":"U","NORAD_CAT_ID":40367,"ELEMENT_SET_NO":999,"REV_AT_EPOCH":4097,"BSTAR":0,"MEAN_MOTION_DOT":-3.05e-6,"MEAN_MOTION_DDOT":0}]
