DMSP 5D-3 F16 (USA 172) 
1 28054U 03048A   26065.60509604  .00000180  00000+0  11746-3 0  9993
2 28054  98.9996  88.7090 0008170  80.3859  26.5999 14.14460733154982
METEOSAT-9 (MSG-2)      
1 28912U 05049B   26065.59066247  .00000122  00000+0  00000+0 0  9991
2 28912   9.1298  55.1603 0001599 224.1198 143.4443  1.00278557  5973
DMSP 5D-3 F17 (USA 191) 
1 29522U 06050A   26065.56664820  .00000235  00000+0  14376-3 0  9990
2 29522  98.7414  74.2253 0009956 355.9250   4.1841 14.14962302997900
FENGYUN 3A              
1 32958U 08026A   26065.56341510  .00000160  00000+0  96360-4 0  9991
2 32958  98.6795   8.3685 0009753  66.3473 293.8727 14.19545242920844
GOES 14                 
1 35491U 09033A   26065.53864336  .00000120  00000+0  00000+0 0  9995
2 35491   1.4247  84.3912 0001772 256.7839 217.5308  1.00100334  5560
DMSP 5D-3 F18 (USA 210) 
1 35951U 09057A   26065.60073195  .00000347  00000+0  20302-3 0  9997
2 35951  98.8960  46.6406 0010952 177.0458 183.0782 14.14833692845085
EWS-G2 (GOES 15)        
1 36411U 10008A   26065.59412914  .00000017  00000+0  00000+0 0  9994
2 36411   1.0141  85.1037 0002103  17.4735 339.0829  1.00269810 58601
COMS 1                  
1 36744U 10032A   26065.38725536 -.00000347  00000+0  00000+0 0  9991
2 36744   4.5407  76.8433 0001247 292.8421  62.0076  1.00271769 50053
FENGYUN 3B              
1 37214U 10059A   26065.63741917  .00000554  00000+0  30991-3 0  9997
2 37214  98.9767 111.1540 0023015 116.4079  36.2340 14.14818222792927
SUOMI NPP               
1 37849U 11061A   26065.57141967  .00000144  00000+0  89496-4 0  9997
2 37849  98.7867   7.1989 0000400 259.5354 100.5777 14.19542526743885
METEOSAT-10 (MSG-3)     
1 38552U 12035B   26065.58164910 -.00000009  00000+0  00000+0 0  9995
2 38552   4.4288  61.4541 0002489 282.7303  29.7526  1.00267880 49826
METOP-B                 
1 38771U 12049A   26065.62938997  .00000165  00000+0  95315-4 0  9992
2 38771  98.6648 119.1119 0001183 282.7518  77.3528 14.21443620698695
INSAT-3D                
1 39216U 13038B   26065.60721586 -.00000342  00000+0  00000+0 0  9998
2 39216   1.6610  83.8839 0001689 247.8508 180.6788  1.00272573 46054
FENGYUN 3C              
1 39260U 13052A   26065.63681870  .00000169  00000+0  10728-3 0  9995
2 39260  98.4887  44.2749 0013983 322.4831  37.5366 14.15727817644055
METEOR-M 2              
1 40069U 14037A   26065.65652862 -.00000086  00000+0 -19993-4 0  9993
2 40069  98.5023  45.0797 0005558 347.1252  12.9783 14.21426083604750
HIMAWARI-8              
1 40267U 14060A   26064.96764973 -.00000282  00000+0  00000+0 0  9990
2 40267   0.0252 238.2083 0000720  99.4681 315.0191  1.00271621 41726
FENGYUN 2G              
1 40367U 14090A   26065.53000323 -.00000305  00000+0  00000+0 0  9996
2 40367   5.3795  74.0622 0001686 150.5335 230.1497  1.00273916 40970
